start=new Date('2022-10-15T00:00:00.000Z').valueOf();
sats=[{"COUNTRY_CODE":"US","EPHEMERIS_TYPE":"0","EPOCH":"2022-10-14T20:05:08.528064","OBJECT_NAME":"STARLINK-2304","REV_AT_EPOCH":"8913","TLE_LINE2":"2 47864  53.0550  76.5636 0001303  85.2396 274.8742 15.06400226 89133","NORAD_CAT_ID":"47864","MEAN_MOTION":"15.06400226","ARG_OF_PERICENTER":"85.2396","INCLINATION":"53.0550","FILE":"3612869","MEAN_MOTION_DOT":"0.00001265","MEAN_ANOMALY":"274.8742","OBJECT_ID":"2021-021E","CLASSIFICATION_TYPE":"U","DECAY_DATE":null,"PERIOD":"95.592","SEMIMAJOR_AXIS":"6925.348","MEAN_MOTION_DDOT":"0.0000000000000","ELEMENT_SET_NO":"999","BSTAR":"0.00010382000000","RCS_SIZE":"LARGE","TIME_SYSTEM":"UTC","CENTER_NAME":"EARTH","SITE":"AFETR","OBJECT_TYPE":"PAYLOAD","APOAPSIS":"548.115","GP_ID":"215142328","RA_OF_ASC_NODE":"76.5636","ECCENTRICITY":"0.00013030","PERIAPSIS":"546.310","REF_FRAME":"TEME","MEAN_ELEMENT_THEORY":"SGP4","TLE_LINE1":"1 47864U 21021E   22287.83690426  .00001265  00000-0  10382-3 0  9995","LAUNCH_DATE":"2021-03-14"},{"BSTAR":"0.00023655000000","CENTER_NAME":"EARTH","TIME_SYSTEM":"UTC","RCS_SIZE":"LARGE","RA_OF_ASC_NODE":"86.5401","GP_ID":"215142078","APOAPSIS":"547.673","OBJECT_TYPE":"PAYLOAD","SITE":"AFETR","ECCENTRICITY":"0.00007280","REF_FRAME":"TEME","PERIAPSIS":"546.665","LAUNCH_DATE":"2021-03-14","TLE_LINE1":"1 47865U 21021F   22287.83133897  .00003245  00000-0  23655-3 0  9997","MEAN_ELEMENT_THEORY":"SGP4","EPHEMERIS_TYPE":"0","EPOCH":"2022-10-14T19:57:07.687008","COUNTRY_CODE":"US","TLE_LINE2":"2 47865  53.0583  86.5401 0000728  88.7005 271.4067 15.06414636 89128","REV_AT_EPOCH":"8912","OBJECT_NAME":"STARLINK-2310","MEAN_MOTION":"15.06414636","NORAD_CAT_ID":"47865","MEAN_MOTION_DOT":"0.00003245","FILE":"3612869","INCLINATION":"53.0583","ARG_OF_PERICENTER":"88.7005","MEAN_ANOMALY":"271.4067","OBJECT_ID":"2021-021F","CLASSIFICATION_TYPE":"U","PERIOD":"95.591","DECAY_DATE":null,"MEAN_MOTION_DDOT":"0.0000000000000","ELEMENT_SET_NO":"999","SEMIMAJOR_AXIS":"6925.304"},{"ELEMENT_SET_NO":"999","MEAN_MOTION_DDOT":"0.0000000000000","SEMIMAJOR_AXIS":"6925.399","PERIOD":"95.593","DECAY_DATE":null,"CLASSIFICATION_TYPE":"U","OBJECT_ID":"2021-021G","MEAN_ANOMALY":"274.0729","MEAN_MOTION_DOT":"0.00004561","FILE":"3612869","INCLINATION":"53.0559","ARG_OF_PERICENTER":"86.0439","MEAN_MOTION":"15.06383638","NORAD_CAT_ID":"47866","TLE_LINE2":"2 47866  53.0559  86.5222 0001565  86.0439 274.0729 15.06383638 89171","OBJECT_NAME":"STARLINK-2320","REV_AT_EPOCH":"8917","EPOCH":"2022-10-14T20:03:48.589056","EPHEMERIS_TYPE":"0","COUNTRY_CODE":"US","LAUNCH_DATE":"2021-03-14","TLE_LINE1":"1 47866U 21021G   22287.83597904  .00004561  00000-0  32504-3 0  9996","MEAN_ELEMENT_THEORY":"SGP4","REF_FRAME":"TEME","PERIAPSIS":"546.180","ECCENTRICITY":"0.00015650","GP_ID":"215143330","RA_OF_ASC_NODE":"86.5222","APOAPSIS":"548.348","OBJECT_TYPE":"PAYLOAD","SITE":"AFETR","CENTER_NAME":"EARTH","TIME_SYSTEM":"UTC","RCS_SIZE":"MEDIUM","BSTAR":"0.00032504000000"},{"MEAN_MOTION_DOT":"0.00000812","FILE":"3612869","INCLINATION":"53.0553","ARG_OF_PERICENTER":"85.7418","MEAN_MOTION":"15.06404891","NORAD_CAT_ID":"47867","TLE_LINE2":"2 47867  53.0553  76.5528 0001451  85.7418 274.3737 15.06404891 89112","REV_AT_EPOCH":"8911","OBJECT_NAME":"STARLINK-2321","EPHEMERIS_TYPE":"0","EPOCH":"2022-10-14T19:54:30.426048","COUNTRY_CODE":"US","ELEMENT_SET_NO":"999","MEAN_MOTION_DDOT":"0.0000000000000","SEMIMAJOR_AXIS":"6925.334","PERIOD":"95.592","DECAY_DATE":null,"CLASSIFICATION_TYPE":"U","OBJECT_ID":"2021-021H","MEAN_ANOMALY":"274.3737","ECCENTRICITY":"0.00014510","GP_ID":"215143080","RA_OF_ASC_NODE":"76.5528","APOAPSIS":"548.203","OBJECT_TYPE":"PAYLOAD","SITE":"AFETR","CENTER_NAME":"EARTH","TIME_SYSTEM":"UTC","RCS_SIZE":"LARGE","BSTAR":"0.00007339800000","LAUNCH_DATE":"2021-03-14","TLE_LINE1":"1 47867U 21021H   22287.82951882  .00000812  00000-0  73398-4 0  9997","MEAN_ELEMENT_THEORY":"SGP4","REF_FRAME":"TEME","PERIAPSIS":"546.194"},{"ECCENTRICITY":"0.00016850","OBJECT_TYPE":"PAYLOAD","SITE":"AFETR","RA_OF_ASC_NODE":"27.1839","GP_ID":"215141828","APOAPSIS":"548.396","TIME_SYSTEM":"UTC","RCS_SIZE":"LARGE","CENTER_NAME":"EARTH","BSTAR":"0.00028386000000","MEAN_ELEMENT_THEORY":"SGP4","LAUNCH_DATE":"2021-03-14","TLE_LINE1":"1 47868U 21021J   22287.69038508  .00003948  00000-0  28386-3 0  9993","PERIAPSIS":"546.062","REF_FRAME":"TEME","FILE":"3612869","ARG_OF_PERICENTER":"65.1579","INCLINATION":"53.0570","MEAN_MOTION_DOT":"0.00003948","NORAD_CAT_ID":"47868","MEAN_MOTION":"15.06394979","OBJECT_NAME":"STARLINK-2323","REV_AT_EPOCH":"8984","TLE_LINE2":"2 47868  53.0570  27.1839 0001685  65.1579 294.9585 15.06394979 89842","EPOCH":"2022-10-14T16:34:09.270912","EPHEMERIS_TYPE":"0","COUNTRY_CODE":"US","SEMIMAJOR_AXIS":"6925.364","ELEMENT_SET_NO":"999","MEAN_MOTION_DDOT":"0.0000000000000","PERIOD":"95.592","DECAY_DATE":null,"CLASSIFICATION_TYPE":"U","MEAN_ANOMALY":"294.9585","OBJECT_ID":"2021-021J"},{"REF_FRAME":"TEME","PERIAPSIS":"546.263","LAUNCH_DATE":"2021-03-14","TLE_LINE1":"1 47869U 21021K   22287.69314882  .00001314  00000-0  10709-3 0  9991","MEAN_ELEMENT_THEORY":"SGP4","CENTER_NAME":"EARTH","TIME_SYSTEM":"UTC","RCS_SIZE":"LARGE","BSTAR":"0.00010709000000","ECCENTRICITY":"0.00013990","RA_OF_ASC_NODE":"77.1501","GP_ID":"215142579","APOAPSIS":"548.201","OBJECT_TYPE":"PAYLOAD","SITE":"AFETR","CLASSIFICATION_TYPE":"U","MEAN_ANOMALY":"272.1522","OBJECT_ID":"2021-021K","ELEMENT_SET_NO":"999","MEAN_MOTION_DDOT":"0.0000000000000","SEMIMAJOR_AXIS":"6925.367","PERIOD":"95.593","DECAY_DATE":null,"TLE_LINE2":"2 47869  53.0540  77.1501 0001399  87.9627 272.1522 15.06394038 89248","OBJECT_NAME":"STARLINK-2324","REV_AT_EPOCH":"8924","EPOCH":"2022-10-14T16:38:08.058048","EPHEMERIS_TYPE":"0","COUNTRY_CODE":"US","MEAN_MOTION_DOT":"0.00001314","FILE":"3612869","ARG_OF_PERICENTER":"87.9627","INCLINATION":"53.0540","MEAN_MOTION":"15.06394038","NORAD_CAT_ID":"47869"},{"PERIOD":"95.591","DECAY_DATE":null,"ELEMENT_SET_NO":"999","MEAN_MOTION_DDOT":"0.0000000000000","SEMIMAJOR_AXIS":"6925.316","MEAN_ANOMALY":"278.7813","OBJECT_ID":"2021-021L","CLASSIFICATION_TYPE":"U","MEAN_MOTION":"15.06410736","NORAD_CAT_ID":"47870","MEAN_MOTION_DOT":"0.00004974","FILE":"3612869","ARG_OF_PERICENTER":"81.3325","INCLINATION":"53.0552","EPOCH":"2022-10-14T20:15:04.582656","EPHEMERIS_TYPE":"0","COUNTRY_CODE":"US","TLE_LINE2":"2 47870  53.0552 101.4856 0001314  81.3325 278.7813 15.06410736 88706","OBJECT_NAME":"STARLINK-2326","REV_AT_EPOCH":"8870","LAUNCH_DATE":"2021-03-14","TLE_LINE1":"1 47870U 21021L   22287.84380304  .00004974  00000-0  35249-3 0  9993","MEAN_ELEMENT_THEORY":"SGP4","REF_FRAME":"TEME","PERIAPSIS":"546.271","RA_OF_ASC_NODE":"101.4856","GP_ID":"215142830","APOAPSIS":"548.091","OBJECT_TYPE":"PAYLOAD","SITE":"AFETR","ECCENTRICITY":"0.00013140","BSTAR":"0.00035249000000","CENTER_NAME":"EARTH","TIME_SYSTEM":"UTC","RCS_SIZE":"MEDIUM"},{"MEAN_ELEMENT_THEORY":"SGP4","LAUNCH_DATE":"2021-03-14","TLE_LINE1":"1 47871U 21021M   22287.75580816 -.00000330  00000-0 -32842-5 0  9996","PERIAPSIS":"546.276","REF_FRAME":"TEME","OBJECT_TYPE":"PAYLOAD","SITE":"AFETR","RA_OF_ASC_NODE":"76.8814","GP_ID":"215143581","APOAPSIS":"548.171","ECCENTRICITY":"0.00013680","BSTAR":"-0.00000328420000","TIME_SYSTEM":"UTC","RCS_SIZE":"LARGE","CENTER_NAME":"EARTH","PERIOD":"95.592","DECAY_DATE":null,"SEMIMAJOR_AXIS":"6925.358","MEAN_MOTION_DDOT":"0.0000000000000","ELEMENT_SET_NO":"999","OBJECT_ID":"2021-021M","MEAN_ANOMALY":"280.7920","CLASSIFICATION_TYPE":"U","NORAD_CAT_ID":"47871","MEAN_MOTION":"15.06396848","FILE":"3612869","ARG_OF_PERICENTER":"79.3223","INCLINATION":"53.0527","MEAN_MOTION_DOT":"-0.00000330","EPHEMERIS_TYPE":"0","EPOCH":"2022-10-14T18:08:21.825024","COUNTRY_CODE":"US","OBJECT_NAME":"STARLINK-2327","REV_AT_EPOCH":"8914","TLE_LINE2":"2 47871  53.0527  76.8814 0001368  79.3223 280.7920 15.06396848 89149"},{"LAUNCH_DATE":"2021-03-14","TLE_LINE1":"1 47872U 21021N   22287.43929007  .00054263  00000-0  65655-3 0  9999","MEAN_ELEMENT_THEORY":"SGP4","REF_FRAME":"TEME","PERIAPSIS":"381.721","ECCENTRICITY":"0.00081740","GP_ID":"215100888","RA_OF_ASC_NODE":"337.8147","APOAPSIS":"392.781","OBJECT_TYPE":"PAYLOAD","SITE":"AFETR","CENTER_NAME":"EARTH","TIME_SYSTEM":"UTC","RCS_SIZE":"LARGE","BSTAR":"0.00065655000000","ELEMENT_SET_NO":"999","MEAN_MOTION_DDOT":"0.0000000000000","SEMIMAJOR_AXIS":"6765.386","PERIOD":"92.299","DECAY_DATE":null,"CLASSIFICATION_TYPE":"U","OBJECT_ID":"2021-021N","MEAN_ANOMALY":"69.6807","MEAN_MOTION_DOT":"0.00054263","FILE":"3611991","ARG_OF_PERICENTER":"290.3327","INCLINATION":"53.0516","MEAN_MOTION":"15.60141292","NORAD_CAT_ID":"47872","TLE_LINE2":"2 47872  53.0516 337.8147 0008174 290.3327  69.6807 15.60141292 90522","OBJECT_NAME":"STARLINK-2328","REV_AT_EPOCH":"9052","EPHEMERIS_TYPE":"0","EPOCH":"2022-10-14T10:32:34.662048","COUNTRY_CODE":"US"},{"MEAN_MOTION_DOT":"0.00000672","ARG_OF_PERICENTER":"86.3106","INCLINATION":"53.0547","FILE":"3612869","MEAN_MOTION":"15.06396834","NORAD_CAT_ID":"47873","TLE_LINE2":"2 47873  53.0547  76.9535 0001389  86.3106 273.8042 15.06396834 89137","REV_AT_EPOCH":"8913","OBJECT_NAME":"STARLINK-2329","COUNTRY_CODE":"US","EPOCH":"2022-10-14T17:41:49.892928","EPHEMERIS_TYPE":"0","MEAN_MOTION_DDOT":"0.0000000000000","ELEMENT_SET_NO":"999","SEMIMAJOR_AXIS":"6925.358","DECAY_DATE":null,"PERIOD":"95.592","CLASSIFICATION_TYPE":"U","OBJECT_ID":"2021-021P","MEAN_ANOMALY":"273.8042","ECCENTRICITY":"0.00013890","APOAPSIS":"548.185","GP_ID":"215142079","RA_OF_ASC_NODE":"76.9535","SITE":"AFETR","OBJECT_TYPE":"PAYLOAD","CENTER_NAME":"EARTH","RCS_SIZE":"LARGE","TIME_SYSTEM":"UTC","BSTAR":"0.00006403100000","TLE_LINE1":"1 47873U 21021P   22287.73738302  .00000672  00000-0  64031-4 0  9992","LAUNCH_DATE":"2021-03-14","MEAN_ELEMENT_THEORY":"SGP4","REF_FRAME":"TEME","PERIAPSIS":"546.261"}];
